{"type":"FeatureCollection","features":[{"type":"Feature","properties":{"name":"Tower Grove","cx":-90.25293,"cy":38.59881},"geometry":{"type":"Polygon","coordinates":[[[-90.2439,38.5919],[-90.2445,38.5884],[-90.2733,38.5915],[-90.2714,38.5943],[-90.2683,38.6098],[-90.2414,38.6072],[-90.2408,38.6099],[-90.2293,38.6084],[-90.2307,38.6016],[-90.2339,38.5999],[-90.2413,38.5947],[-90.2438,38.5925],[-90.2439,38.5919]]]}},{"type":"Feature","properties":{"name":"North City","cx":-90.2385,"cy":38.70544},"geometry":{"type":"Polygon","coordinates":[[[-90.2549,38.6509],[-90.3018,38.6556],[-90.2518,38.7188],[-90.2283,38.728],[-90.2243,38.7291],[-90.2218,38.7301],[-90.2183,38.7334],[-90.2126,38.7362],[-90.2079,38.7398],[-90.1973,38.7493],[-90.1954,38.7516],[-90.1887,38.7583],[-90.1862,38.7614],[-90.185,38.7648],[-90.1838,38.7706],[-90.1842,38.7743],[-90.175,38.7734],[-90.1811,38.7602],[-90.1832,38.7528],[-90.1844,38.7512],[-90.1884,38.7481],[-90.1986,38.7422],[-90.2062,38.7373],[-90.2122,38.7319],[-90.2136,38.7296],[-90.2159,38.7223],[-90.2169,38.713],[-90.2155,38.7075],[-90.2134,38.7027],[-90.2064,38.6941],[-90.207,38.6936],[-90.1987,38.6863],[-90.1897,38.6754],[-90.182,38.6495],[-90.1808,38.6389],[-90.1807,38.6355],[-90.181,38.6338],[-90.1861,38.6344],[-90.1861,38.6332],[-90.1881,38.6339],[-90.2128,38.639],[-90.2128,38.6368],[-90.2243,38.6392],[-90.2256,38.6357],[-90.2409,38.6389],[-90.2378,38.6433],[-90.2549,38.6509]]]}},{"type":"Feature","properties":{"name":"Central West End","cx":-90.25238,"cy":38.64108},"geometry":{"type":"Polygon","coordinates":[[[-90.2635,38.6516],[-90.2549,38.6509],[-90.2378,38.6433],[-90.241,38.6387],[-90.2432,38.6323],[-90.2497,38.6311],[-90.256,38.631],[-90.2613,38.6321],[-90.2633,38.6319],[-90.2654,38.6313],[-90.2664,38.6331],[-90.2665,38.6343],[-90.2648,38.6439],[-90.2747,38.645],[-90.2734,38.6527],[-90.2635,38.6516]]]}},{"type":"Feature","properties":{"name":"Dutchtown","cx":-90.24816,"cy":38.57809},"geometry":{"type":"Polygon","coordinates":[[[-90.2445,38.5884],[-90.2269,38.5861],[-90.2284,38.579],[-90.2398,38.5804],[-90.2421,38.5697],[-90.2442,38.5666],[-90.2454,38.5672],[-90.2451,38.568],[-90.2566,38.574],[-90.2558,38.5758],[-90.2557,38.577],[-90.2568,38.5805],[-90.2594,38.5851],[-90.2597,38.59],[-90.2445,38.5884]]]}}]}