{"type":"FeatureCollection","features":[{"type":"Feature","properties":{"GEOID":"29510123200","pop":2878,"pct_black":36.0,"pct_vacant":6.1,"medinck":75.23,"n_seg":56,"ample_slig":92.86,"well_maint":57.14,"paved":80.36,"c_paved":82.14,"no_mtrip":35.71,"ped_crossi":5.36,"curb_ramp":7.14,"h_tcanopy":53.7},"geometry":{"type":"Polygon","coordinates":[[[-90.22163,38.6116],[-90.2201,38.61823],[-90.21312,38.61735],[-90.20592,38.61537],[-90.20426,38.61477],[-90.20618,38.61269],[-90.20578,38.61247],[-90.2064,38.61176],[-90.20724,38.61087],[-90.20773,38.61107],[-90.20849,38.61021],[-90.20965,38.60772],[-90.2119,38.60836],[-90.21175,38.60861],[-90.21236,38.60848],[-90.22174,38.61109],[-90.22163,38.6116]]]}},{"type":"Feature","properties":{"GEOID":"29510124600","pop":1720,"pct_black":66.28,"pct_vacant":20.28,"medinck":36.92,"n_seg":82,"ample_slig":92.68,"well_maint":63.41,"paved":81.71,"c_paved":68.29,"no_mtrip":20.73,"ped_crossi":6.1,"curb_ramp":13.41,"h_tcanopy":57.53},"geometry":{"type":"Polygon","coordinates":[[[-90.22765,38.58271],[-90.22703,38.58567],[-90.22572,38.58703],[-90.22218,38.5891],[-90.21819,38.58988],[-90.21657,38.5905],[-90.21493,38.59134],[-90.21571,38.59205],[-90.21633,38.59213],[-90.21599,38.59391],[-90.21545,38.59384],[-90.21597,38.59508],[-90.21605,38.59626],[-90.21499,38.60073],[-90.2074,38.59853],[-90.20512,38.59645],[-90.20483,38.5966],[-90.20471,38.59629],[-90.20479,38.59587],[-90.20561,38.5952],[-90.206,38.59504],[-90.20413,38.59347],[-90.20292,38.59217],[-90.20166,38.58943],[-90.2025,38.58868],[-90.2101,38.58398],[-90.2167,38.57878],[-90.21793,38.57826],[-90.22094,38.57952],[-90.22171,38.57945],[-90.22359,38.58031],[-90.22414,38.58009],[-90.22553,38.5804],[-90.22275,38.58208],[-90.2234,38.5822],[-90.2239,38.58208],[-90.22768,38.58253],[-90.22765,38.58271]]]}},{"type":"Feature","properties":{"GEOID":"29510125500","pop":4502,"pct_black":35.3,"pct_vacant":15.25,"medinck":63.69,"n_seg":61,"ample_slig":98.36,"well_maint":93.44,"paved":86.89,"c_paved":88.52,"no_mtrip":13.11,"ped_crossi":18.03,"curb_ramp":19.67,"h_tcanopy":49.06},"geometry":{"type":"Polygon","coordinates":[[[-90.21128,38.62764],[-90.21046,38.63013],[-90.20634,38.6293],[-90.20497,38.63349],[-90.20468,38.63364],[-90.20389,38.63598],[-90.19578,38.63428],[-90.19921,38.62525],[-90.19919,38.625],[-90.20004,38.62302],[-90.20468,38.62426],[-90.20769,38.62488],[-90.21109,38.62607],[-90.21093,38.6268],[-90.21061,38.62738],[-90.21119,38.62751],[-90.21128,38.62764]]]}},{"type":"Feature","properties":{"GEOID":"29510104500","pop":2270,"pct_black":10.13,"pct_vacant":19.42,"medinck":62.92,"n_seg":108,"ample_slig":86.11,"well_maint":88.89,"paved":82.41,"c_paved":83.33,"no_mtrip":29.63,"ped_crossi":12.04,"curb_ramp":15.74,"h_tcanopy":65.17},"geometry":{"type":"Polygon","coordinates":[[[-90.29432,38.62098],[-90.2935,38.62492],[-90.2924,38.63146],[-90.2645,38.62875],[-90.26548,38.62322],[-90.26918,38.62403],[-90.27282,38.62401],[-90.29118,38.62183],[-90.29432,38.62098]]]}},{"type":"Feature","properties":{"GEOID":"29510106100","pop":1555,"pct_black":98.2,"pct_vacant":29.82,"medinck":27.35,"n_seg":56,"ample_slig":92.86,"well_maint":82.14,"paved":100.0,"c_paved":83.93,"no_mtrip":25.0,"ped_crossi":8.93,"curb_ramp":8.93,"h_tcanopy":74.07},"geometry":{"type":"Polygon","coordinates":[[[-90.29005,38.67058],[-90.28603,38.67565],[-90.27236,38.66829],[-90.27615,38.66309],[-90.29005,38.67058]]]}},{"type":"Feature","properties":{"GEOID":"29510105500","pop":2636,"pct_black":88.2,"pct_vacant":26.5,"medinck":53.88,"n_seg":68,"ample_slig":85.29,"well_maint":85.29,"paved":95.59,"c_paved":86.76,"no_mtrip":48.53,"ped_crossi":5.88,"curb_ramp":4.41,"h_tcanopy":58.46},"geometry":{"type":"Polygon","coordinates":[[[-90.28601,38.65899],[-90.2852,38.66401],[-90.28314,38.66687],[-90.27199,38.6609],[-90.26572,38.66024],[-90.26634,38.65649],[-90.27263,38.65713],[-90.27309,38.65423],[-90.27888,38.65477],[-90.27834,38.65811],[-90.28602,38.65886],[-90.28601,38.65899]]]}},{"type":"Feature","properties":{"GEOID":"29510105200","pop":2925,"pct_black":40.58,"pct_vacant":12.88,"medinck":50.48,"n_seg":42,"ample_slig":71.43,"well_maint":76.19,"paved":95.24,"c_paved":88.1,"no_mtrip":23.81,"ped_crossi":9.52,"curb_ramp":11.9,"h_tcanopy":56.1},"geometry":{"type":"Polygon","coordinates":[[[-90.29462,38.64858],[-90.29384,38.65336],[-90.29459,38.65493],[-90.28208,38.65366],[-90.28296,38.64842],[-90.28516,38.64864],[-90.28547,38.64651],[-90.28533,38.64606],[-90.29487,38.64699],[-90.29462,38.64858]]]}},{"type":"Feature","properties":{"GEOID":"29510105300","pop":2127,"pct_black":81.01,"pct_vacant":12.82,"medinck":18.66,"n_seg":57,"ample_slig":94.74,"well_maint":91.23,"paved":100.0,"c_paved":92.98,"no_mtrip":45.61,"ped_crossi":3.51,"curb_ramp":14.04,"h_tcanopy":57.89},"geometry":{"type":"Polygon","coordinates":[[[-90.29705,38.66175],[-90.29688,38.66197],[-90.29607,38.66188],[-90.29554,38.66168],[-90.29415,38.66174],[-90.28572,38.66089],[-90.28602,38.65886],[-90.27834,38.65811],[-90.27892,38.6546],[-90.28197,38.65489],[-90.28216,38.65378],[-90.28208,38.65366],[-90.29414,38.65489],[-90.29653,38.65957],[-90.29705,38.66175]]]}},{"type":"Feature","properties":{"GEOID":"29510105400","pop":2498,"pct_black":83.87,"pct_vacant":15.77,"medinck":57.63,"n_seg":38,"ample_slig":89.47,"well_maint":86.84,"paved":97.37,"c_paved":92.11,"no_mtrip":26.32,"ped_crossi":10.53,"curb_ramp":15.79,"h_tcanopy":51.52},"geometry":{"type":"Polygon","coordinates":[[[-90.29688,38.66197],[-90.29005,38.67058],[-90.28314,38.66687],[-90.2852,38.66401],[-90.28572,38.66089],[-90.29415,38.66174],[-90.29554,38.66168],[-90.29607,38.66188],[-90.29688,38.66197]]]}},{"type":"Feature","properties":{"GEOID":"29510104200","pop":3450,"pct_black":11.33,"pct_vacant":12.02,"medinck":68.24,"n_seg":62,"ample_slig":88.71,"well_maint":88.71,"paved":95.16,"c_paved":90.32,"no_mtrip":19.35,"ped_crossi":4.84,"curb_ramp":6.45,"h_tcanopy":72.13},"geometry":{"type":"Polygon","coordinates":[[[-90.30915,38.62797],[-90.3087,38.63024],[-90.30781,38.63247],[-90.30643,38.63359],[-90.30571,38.63352],[-90.30564,38.6333],[-90.30453,38.63263],[-90.2924,38.63146],[-90.29422,38.62124],[-90.29435,38.62091],[-90.29505,38.62059],[-90.29572,38.62173],[-90.29651,38.62246],[-90.29753,38.6239],[-90.29927,38.6247],[-90.30105,38.62499],[-90.30125,38.62557],[-90.30122,38.62619],[-90.30934,38.62697],[-90.30915,38.62797]]]}},{"type":"Feature","properties":{"GEOID":"29510103600","pop":1360,"pct_black":2.28,"pct_vacant":13.41,"medinck":78.82,"n_seg":71,"ample_slig":87.32,"well_maint":80.28,"paved":76.06,"c_paved":84.51,"no_mtrip":25.35,"ped_crossi":9.86,"curb_ramp":14.08,"h_tcanopy":50.72},"geometry":{"type":"Polygon","coordinates":[[[-90.30233,38.61351],[-90.29346,38.61918],[-90.29037,38.62063],[-90.29012,38.62196],[-90.28018,38.62315],[-90.28105,38.6191],[-90.28085,38.61693],[-90.28288,38.61716],[-90.28387,38.61183],[-90.29527,38.61293],[-90.29614,38.61263],[-90.29844,38.61235],[-90.29955,38.61236],[-90.30029,38.61259],[-90.30154,38.61343],[-90.30233,38.61351]]]}},{"type":"Feature","properties":{"GEOID":"29510105198","pop":3556,"pct_black":8.38,"pct_vacant":8.54,"medinck":87.92,"n_seg":57,"ample_slig":82.46,"well_maint":84.21,"paved":94.74,"c_paved":89.47,"no_mtrip":33.33,"ped_crossi":5.26,"curb_ramp":5.26,"h_tcanopy":56.6},"geometry":{"type":"Polygon","coordinates":[[[-90.30633,38.63412],[-90.30481,38.64244],[-90.30362,38.64489],[-90.30183,38.65564],[-90.29705,38.66175],[-90.29666,38.65989],[-90.29414,38.65489],[-90.29459,38.65493],[-90.29384,38.65336],[-90.29487,38.64699],[-90.30098,38.6476],[-90.30141,38.6451],[-90.30288,38.64074],[-90.30378,38.63542],[-90.30453,38.63263],[-90.30564,38.6333],[-90.30571,38.63352],[-90.30643,38.63359],[-90.30633,38.63412]]]}},{"type":"Feature","properties":{"GEOID":"29510106500","pop":2802,"pct_black":91.04,"pct_vacant":33.43,"medinck":42.2,"n_seg":54,"ample_slig":83.33,"well_maint":77.78,"paved":96.3,"c_paved":74.07,"no_mtrip":24.07,"ped_crossi":5.56,"curb_ramp":9.26,"h_tcanopy":48.0},"geometry":{"type":"Polygon","coordinates":[[[-90.27517,38.67067],[-90.27302,38.67366],[-90.26781,38.67136],[-90.26606,38.6738],[-90.26241,38.67234],[-90.25643,38.66968],[-90.26155,38.66306],[-90.26487,38.66427],[-90.26585,38.66474],[-90.27563,38.67005],[-90.27517,38.67067]]]}},{"type":"Feature","properties":{"GEOID":"29510106600","pop":1186,"pct_black":92.83,"pct_vacant":35.85,"medinck":null,"n_seg":51,"ample_slig":90.2,"well_maint":84.31,"paved":92.16,"c_paved":74.51,"no_mtrip":17.65,"ped_crossi":9.8,"curb_ramp":15.69,"h_tcanopy":60.0},"geometry":{"type":"Polygon","coordinates":[[[-90.2754,38.66414],[-90.27236,38.66829],[-90.26487,38.66427],[-90.2535,38.66019],[-90.25505,38.65806],[-90.25843,38.65955],[-90.27199,38.6609],[-90.27615,38.66309],[-90.2754,38.66414]]]}},{"type":"Feature","properties":{"GEOID":"29510106300","pop":1230,"pct_black":100.0,"pct_vacant":45.09,"medinck":27.66,"n_seg":58,"ample_slig":79.31,"well_maint":62.07,"paved":100.0,"c_paved":63.79,"no_mtrip":25.86,"ped_crossi":8.62,"curb_ramp":5.17,"h_tcanopy":70.91},"geometry":{"type":"Polygon","coordinates":[[[-90.27928,38.67222],[-90.27271,38.6819],[-90.27127,38.68603],[-90.26618,38.68275],[-90.26376,38.68165],[-90.27037,38.67249],[-90.27302,38.67366],[-90.27563,38.67005],[-90.27938,38.67207],[-90.27928,38.67222]]]}},{"type":"Feature","properties":{"GEOID":"29510107200","pop":1015,"pct_black":92.32,"pct_vacant":36.16,"medinck":29.73,"n_seg":39,"ample_slig":87.18,"well_maint":71.79,"paved":89.74,"c_paved":58.97,"no_mtrip":35.9,"ped_crossi":5.13,"curb_ramp":12.82,"h_tcanopy":56.76},"geometry":{"type":"Polygon","coordinates":[[[-90.26078,38.69806],[-90.2601,38.69893],[-90.25966,38.69929],[-90.25285,38.70343],[-90.24947,38.70682],[-90.24561,38.70242],[-90.26018,38.69437],[-90.26039,38.6955],[-90.26044,38.69696],[-90.26078,38.69806]]]}},{"type":"Feature","properties":{"GEOID":"29510106700","pop":3347,"pct_black":95.4,"pct_vacant":38.88,"medinck":56.17,"n_seg":70,"ample_slig":65.71,"well_maint":65.71,"paved":97.14,"c_paved":51.43,"no_mtrip":22.86,"ped_crossi":7.14,"curb_ramp":4.29,"h_tcanopy":51.52},"geometry":{"type":"Polygon","coordinates":[[[-90.26155,38.66306],[-90.25603,38.67018],[-90.25172,38.67628],[-90.24426,38.67307],[-90.2535,38.66019],[-90.26155,38.66306]]]}},{"type":"Feature","properties":{"GEOID":"29510107400","pop":2048,"pct_black":76.07,"pct_vacant":29.62,"medinck":43.88,"n_seg":60,"ample_slig":81.67,"well_maint":66.67,"paved":93.33,"c_paved":38.33,"no_mtrip":23.33,"ped_crossi":6.67,"curb_ramp":8.33,"h_tcanopy":79.31},"geometry":{"type":"Polygon","coordinates":[[[-90.26018,38.69437],[-90.24561,38.70242],[-90.24101,38.69715],[-90.25393,38.69006],[-90.25476,38.69018],[-90.25585,38.69059],[-90.25809,38.69169],[-90.25926,38.6927],[-90.2599,38.69367],[-90.26018,38.69437]]]}},{"type":"Feature","properties":{"GEOID":"29510107500","pop":1539,"pct_black":91.75,"pct_vacant":34.2,"medinck":null,"n_seg":53,"ample_slig":75.47,"well_maint":71.7,"paved":94.34,"c_paved":47.17,"no_mtrip":7.55,"ped_crossi":7.55,"curb_ramp":7.55,"h_tcanopy":63.27},"geometry":{"type":"Polygon","coordinates":[[[-90.25476,38.69018],[-90.25393,38.69006],[-90.24101,38.69715],[-90.23619,38.69138],[-90.24562,38.6862],[-90.25476,38.69018]]]}},{"type":"Feature","properties":{"GEOID":"29510107600","pop":1659,"pct_black":95.96,"pct_vacant":29.97,"medinck":36.56,"n_seg":57,"ample_slig":75.44,"well_maint":57.89,"paved":75.44,"c_paved":71.93,"no_mtrip":26.32,"ped_crossi":3.51,"curb_ramp":12.28,"h_tcanopy":82.35},"geometry":{"type":"Polygon","coordinates":[[[-90.24797,38.68199],[-90.24716,38.68507],[-90.24679,38.68557],[-90.23619,38.69138],[-90.23008,38.68442],[-90.22851,38.68347],[-90.22648,38.68248],[-90.22697,38.68218],[-90.22778,38.68206],[-90.22814,38.68214],[-90.22883,38.68259],[-90.23,38.68273],[-90.23017,38.68227],[-90.23276,38.682],[-90.23285,38.68252],[-90.23655,38.68207],[-90.23823,38.68228],[-90.23928,38.6826],[-90.2419,38.67912],[-90.24796,38.68172],[-90.24797,38.68199]]]}},{"type":"Feature","properties":{"GEOID":"29510111100","pop":1944,"pct_black":95.99,"pct_vacant":21.55,"medinck":null,"n_seg":65,"ample_slig":73.85,"well_maint":72.31,"paved":95.38,"c_paved":60.0,"no_mtrip":30.77,"ped_crossi":7.69,"curb_ramp":9.23,"h_tcanopy":68.33},"geometry":{"type":"Polygon","coordinates":[[[-90.25265,38.65135],[-90.25132,38.65323],[-90.24838,38.65193],[-90.24665,38.65436],[-90.22731,38.64587],[-90.22932,38.64234],[-90.2363,38.6454],[-90.23711,38.64427],[-90.25254,38.65106],[-90.25277,38.65117],[-90.25265,38.65135]]]}},{"type":"Feature","properties":{"GEOID":"29510111200","pop":909,"pct_black":82.62,"pct_vacant":42.39,"medinck":50.25,"n_seg":56,"ample_slig":62.5,"well_maint":50.0,"paved":98.21,"c_paved":46.43,"no_mtrip":23.21,"ped_crossi":5.36,"curb_ramp":5.36,"h_tcanopy":61.11},"geometry":{"type":"Polygon","coordinates":[[[-90.25491,38.65826],[-90.24822,38.66756],[-90.2428,38.6652],[-90.24807,38.65781],[-90.23706,38.65298],[-90.23857,38.65082],[-90.24665,38.65436],[-90.24838,38.65193],[-90.25132,38.65323],[-90.24959,38.65565],[-90.25505,38.65806],[-90.25491,38.65826]]]}},{"type":"Feature","properties":{"GEOID":"29510111300","pop":1542,"pct_black":93.9,"pct_vacant":27.8,"medinck":27.87,"n_seg":56,"ample_slig":69.64,"well_maint":58.93,"paved":98.21,"c_paved":48.21,"no_mtrip":41.07,"ped_crossi":5.36,"curb_ramp":5.36,"h_tcanopy":74.07},"geometry":{"type":"Polygon","coordinates":[[[-90.24795,38.65797],[-90.2428,38.6652],[-90.23344,38.66114],[-90.23477,38.65929],[-90.23371,38.65883],[-90.23551,38.65629],[-90.23554,38.65604],[-90.23587,38.6558],[-90.23766,38.65324],[-90.24807,38.65781],[-90.24795,38.65797]]]}},{"type":"Feature","properties":{"GEOID":"29510112200","pop":1257,"pct_black":81.23,"pct_vacant":31.91,"medinck":39.17,"n_seg":37,"ample_slig":78.38,"well_maint":78.38,"paved":94.59,"c_paved":72.97,"no_mtrip":43.24,"ped_crossi":8.11,"curb_ramp":21.62,"h_tcanopy":65.62},"geometry":{"type":"Polygon","coordinates":[[[-90.28213,38.65402],[-90.28197,38.65489],[-90.27892,38.6546],[-90.27888,38.65477],[-90.27309,38.65423],[-90.27263,38.65713],[-90.26634,38.65649],[-90.26572,38.66024],[-90.26209,38.65988],[-90.2635,38.65156],[-90.27263,38.65249],[-90.27507,38.65303],[-90.28208,38.65366],[-90.28213,38.65402]]]}},{"type":"Feature","properties":{"GEOID":"29510115400","pop":2875,"pct_black":36.1,"pct_vacant":15.8,"medinck":41.72,"n_seg":53,"ample_slig":86.79,"well_maint":92.45,"paved":96.23,"c_paved":79.25,"no_mtrip":18.87,"ped_crossi":5.66,"curb_ramp":7.55,"h_tcanopy":45.28},"geometry":{"type":"Polygon","coordinates":[[[-90.2695,38.57945],[-90.26691,38.58149],[-90.25066,38.57293],[-90.25439,38.56855],[-90.2691,38.57631],[-90.26832,38.57865],[-90.26966,38.57933],[-90.2695,38.57945]]]}},{"type":"Feature","properties":{"GEOID":"29510115500","pop":6370,"pct_black":57.68,"pct_vacant":14.41,"medinck":46.35,"n_seg":68,"ample_slig":79.41,"well_maint":98.53,"paved":100.0,"c_paved":64.71,"no_mtrip":25.0,"ped_crossi":2.94,"curb_ramp":7.35,"h_tcanopy":37.1},"geometry":{"type":"Polygon","coordinates":[[[-90.25439,38.56855],[-90.24609,38.57838],[-90.24429,38.58061],[-90.2442,38.58094],[-90.2398,38.58037],[-90.24205,38.56963],[-90.24599,38.56409],[-90.25439,38.56855]]]}},{"type":"Feature","properties":{"GEOID":"29510115600","pop":4490,"pct_black":39.06,"pct_vacant":12.59,"medinck":28.05,"n_seg":87,"ample_slig":88.51,"well_maint":72.41,"paved":88.51,"c_paved":78.16,"no_mtrip":37.93,"ped_crossi":5.75,"curb_ramp":4.6,"h_tcanopy":55.42},"geometry":{"type":"Polygon","coordinates":[[[-90.24659,38.56333],[-90.24205,38.56963],[-90.2398,38.58037],[-90.2297,38.57914],[-90.22953,38.57909],[-90.22952,38.57892],[-90.22834,38.57875],[-90.22597,38.57882],[-90.2244,38.57772],[-90.22125,38.57684],[-90.2221,38.57648],[-90.2242,38.57508],[-90.23807,38.55807],[-90.24167,38.55973],[-90.24246,38.5599],[-90.24622,38.56187],[-90.24617,38.56221],[-90.24659,38.56333]]]}},{"type":"Feature","properties":{"GEOID":"29510119200","pop":1652,"pct_black":35.11,"pct_vacant":19.59,"medinck":87.16,"n_seg":42,"ample_slig":71.43,"well_maint":92.86,"paved":100.0,"c_paved":69.05,"no_mtrip":23.81,"ped_crossi":0.0,"curb_ramp":4.76,"h_tcanopy":45.95},"geometry":{"type":"Polygon","coordinates":[[[-90.2561,38.64652],[-90.25277,38.65117],[-90.23711,38.64427],[-90.23777,38.64333],[-90.24244,38.64538],[-90.24519,38.64149],[-90.25623,38.64634],[-90.2561,38.64652]]]}},{"type":"Feature","properties":{"GEOID":"29510119300","pop":3895,"pct_black":14.87,"pct_vacant":25.01,"medinck":28.91,"n_seg":64,"ample_slig":92.19,"well_maint":96.88,"paved":90.62,"c_paved":85.94,"no_mtrip":21.88,"ped_crossi":9.38,"curb_ramp":9.38,"h_tcanopy":39.29},"geometry":{"type":"Polygon","coordinates":[[[-90.24663,38.63739],[-90.24527,38.64134],[-90.24244,38.64538],[-90.23777,38.64333],[-90.2363,38.6454],[-90.22932,38.64234],[-90.23009,38.64102],[-90.23254,38.63764],[-90.23379,38.63442],[-90.24672,38.63711],[-90.24663,38.63739]]]}},{"type":"Feature","properties":{"GEOID":"29510120200","pop":1233,"pct_black":93.43,"pct_vacant":18.97,"medinck":38.35,"n_seg":33,"ample_slig":81.82,"well_maint":72.73,"paved":90.91,"c_paved":51.52,"no_mtrip":18.18,"ped_crossi":12.12,"curb_ramp":9.09,"h_tcanopy":55.56},"geometry":{"type":"Polygon","coordinates":[[[-90.21455,38.65767],[-90.20842,38.66628],[-90.20367,38.65669],[-90.2024,38.65494],[-90.21325,38.65722],[-90.21455,38.65767]]]}},{"type":"Feature","properties":{"GEOID":"29510114200","pop":4146,"pct_black":11.75,"pct_vacant":10.14,"medinck":73.62,"n_seg":81,"ample_slig":81.48,"well_maint":93.83,"paved":96.3,"c_paved":90.12,"no_mtrip":46.91,"ped_crossi":8.64,"curb_ramp":7.41,"h_tcanopy":56.96},"geometry":{"type":"Polygon","coordinates":[[[-90.30049,38.59753],[-90.30008,38.60007],[-90.29888,38.60265],[-90.27021,38.59974],[-90.27131,38.5944],[-90.30049,38.59753]]]}},{"type":"Feature","properties":{"GEOID":"29510114300","pop":5939,"pct_black":3.47,"pct_vacant":4.24,"medinck":78.55,"n_seg":77,"ample_slig":79.22,"well_maint":98.7,"paved":100.0,"c_paved":92.21,"no_mtrip":48.05,"ped_crossi":3.9,"curb_ramp":3.9,"h_tcanopy":54.41},"geometry":{"type":"Polygon","coordinates":[[[-90.29332,38.58212],[-90.29248,38.58673],[-90.29251,38.58715],[-90.29237,38.5873],[-90.29166,38.59127],[-90.27466,38.58947],[-90.27618,38.58728],[-90.27668,38.58485],[-90.27882,38.58094],[-90.29181,38.58231],[-90.29332,38.58212]]]}},{"type":"Feature","properties":{"GEOID":"29510115100","pop":3966,"pct_black":24.05,"pct_vacant":13.91,"medinck":46.76,"n_seg":62,"ample_slig":75.81,"well_maint":93.55,"paved":96.77,"c_paved":75.81,"no_mtrip":29.03,"ped_crossi":6.45,"curb_ramp":4.84,"h_tcanopy":59.32},"geometry":{"type":"Polygon","coordinates":[[[-90.27875,38.58107],[-90.27668,38.58485],[-90.27618,38.58728],[-90.27325,38.59147],[-90.26402,38.59042],[-90.26727,38.5812],[-90.26981,38.57921],[-90.27074,38.57969],[-90.27581,38.57974],[-90.27704,38.58071],[-90.27882,38.58094],[-90.27875,38.58107]]]}},{"type":"Feature","properties":{"GEOID":"29510110400","pop":2639,"pct_black":92.16,"pct_vacant":27.6,"medinck":47.96,"n_seg":54,"ample_slig":81.48,"well_maint":66.67,"paved":92.59,"c_paved":62.96,"no_mtrip":20.37,"ped_crossi":3.7,"curb_ramp":11.11,"h_tcanopy":68.52},"geometry":{"type":"Polygon","coordinates":[[[-90.22886,38.65937],[-90.22502,38.66476],[-90.21321,38.65958],[-90.21762,38.65337],[-90.22469,38.65662],[-90.22431,38.65717],[-90.22899,38.6592],[-90.22886,38.65937]]]}},{"type":"Feature","properties":{"GEOID":"29510110500","pop":721,"pct_black":89.88,"pct_vacant":48.42,"medinck":28.23,"n_seg":52,"ample_slig":84.62,"well_maint":82.69,"paved":90.38,"c_paved":53.85,"no_mtrip":25.0,"ped_crossi":5.77,"curb_ramp":7.69,"h_tcanopy":65.22},"geometry":{"type":"Polygon","coordinates":[[[-90.2286,38.66678],[-90.22627,38.67005],[-90.22202,38.6682],[-90.21964,38.67156],[-90.21285,38.66872],[-90.21227,38.66962],[-90.21106,38.66905],[-90.20929,38.66783],[-90.20842,38.66628],[-90.21321,38.65958],[-90.22885,38.66644],[-90.2286,38.66678]]]}},{"type":"Feature","properties":{"GEOID":"29510110100","pop":1961,"pct_black":98.88,"pct_vacant":41.45,"medinck":30.08,"n_seg":58,"ample_slig":74.14,"well_maint":72.41,"paved":94.83,"c_paved":46.55,"no_mtrip":20.69,"ped_crossi":6.9,"curb_ramp":10.34,"h_tcanopy":72.73},"geometry":{"type":"Polygon","coordinates":[[[-90.24788,38.66804],[-90.24426,38.67307],[-90.24131,38.67191],[-90.23974,38.67414],[-90.23945,38.67401],[-90.23712,38.67717],[-90.23631,38.67682],[-90.23468,38.67794],[-90.2357,38.67838],[-90.23455,38.67934],[-90.23071,38.67766],[-90.24045,38.66418],[-90.24822,38.66756],[-90.24788,38.66804]]]}},{"type":"Feature","properties":{"GEOID":"29510110200","pop":2199,"pct_black":93.22,"pct_vacant":34.44,"medinck":25.78,"n_seg":41,"ample_slig":73.17,"well_maint":78.05,"paved":95.12,"c_paved":53.66,"no_mtrip":21.95,"ped_crossi":2.44,"curb_ramp":12.2,"h_tcanopy":68.29},"geometry":{"type":"Polygon","coordinates":[[[-90.23633,38.6699],[-90.23071,38.67766],[-90.22511,38.67433],[-90.22251,38.67319],[-90.22227,38.67321],[-90.22138,38.67224],[-90.21964,38.67156],[-90.22202,38.6682],[-90.22627,38.67005],[-90.22724,38.66867],[-90.23179,38.67066],[-90.23336,38.66842],[-90.23645,38.66977],[-90.23633,38.6699]]]}},{"type":"Feature","properties":{"GEOID":"29510112300","pop":1553,"pct_black":87.51,"pct_vacant":39.97,"medinck":31.77,"n_seg":48,"ample_slig":70.83,"well_maint":75.0,"paved":91.67,"c_paved":64.58,"no_mtrip":33.33,"ped_crossi":4.17,"curb_ramp":4.17,"h_tcanopy":61.36},"geometry":{"type":"Polygon","coordinates":[[[-90.26346,38.65179],[-90.26209,38.65988],[-90.25843,38.65955],[-90.24959,38.65565],[-90.25345,38.65022],[-90.2549,38.65086],[-90.2635,38.65156],[-90.26346,38.65179]]]}},{"type":"Feature","properties":{"GEOID":"29510116100","pop":3306,"pct_black":35.81,"pct_vacant":14.18,"medinck":41.59,"n_seg":47,"ample_slig":80.85,"well_maint":100.0,"paved":97.87,"c_paved":80.85,"no_mtrip":25.53,"ped_crossi":8.51,"curb_ramp":8.51,"h_tcanopy":66.67},"geometry":{"type":"Polygon","coordinates":[[[-90.25971,38.58993],[-90.25837,38.58981],[-90.25789,38.5925],[-90.25958,38.59269],[-90.25881,38.59777],[-90.25056,38.59688],[-90.25092,38.59445],[-90.25105,38.59416],[-90.2515,38.59383],[-90.25166,38.59316],[-90.2517,38.59233],[-90.25107,38.59146],[-90.25139,38.59138],[-90.25207,38.5868],[-90.25229,38.5863],[-90.25303,38.58545],[-90.25958,38.58892],[-90.25971,38.58993]]]}},{"type":"Feature","properties":{"GEOID":"29510116200","pop":3737,"pct_black":11.05,"pct_vacant":12.4,"medinck":91.1,"n_seg":106,"ample_slig":83.02,"well_maint":76.42,"paved":92.45,"c_paved":87.74,"no_mtrip":48.11,"ped_crossi":9.43,"curb_ramp":11.32,"h_tcanopy":62.14},"geometry":{"type":"Polygon","coordinates":[[[-90.27024,38.59959],[-90.26825,38.60974],[-90.24139,38.60719],[-90.24225,38.60271],[-90.24953,38.60352],[-90.25056,38.59688],[-90.25881,38.59777],[-90.25868,38.59867],[-90.26197,38.59901],[-90.26202,38.59868],[-90.26218,38.59868],[-90.27024,38.59959]]]}},{"type":"Feature","properties":{"GEOID":"29510116400","pop":5259,"pct_black":62.98,"pct_vacant":21.13,"medinck":43.4,"n_seg":58,"ample_slig":81.03,"well_maint":96.55,"paved":94.83,"c_paved":77.59,"no_mtrip":17.24,"ped_crossi":3.45,"curb_ramp":3.45,"h_tcanopy":41.18},"geometry":{"type":"Polygon","coordinates":[[[-90.24496,38.58528],[-90.24306,38.59732],[-90.23306,38.59606],[-90.23345,38.59429],[-90.23458,38.59442],[-90.23606,38.58725],[-90.23833,38.58754],[-90.23906,38.58395],[-90.24489,38.58467],[-90.24496,38.58528]]]}},{"type":"Feature","properties":{"GEOID":"29510107300","pop":4283,"pct_black":95.33,"pct_vacant":23.05,"medinck":38.22,"n_seg":87,"ample_slig":82.76,"well_maint":85.06,"paved":97.7,"c_paved":72.41,"no_mtrip":29.89,"ped_crossi":2.3,"curb_ramp":9.2,"h_tcanopy":66.27},"geometry":{"type":"Polygon","coordinates":[[[-90.26572,38.70129],[-90.254,38.71602],[-90.25123,38.71469],[-90.24411,38.71226],[-90.25285,38.70343],[-90.25966,38.69929],[-90.2601,38.69893],[-90.2608,38.69804],[-90.26149,38.69904],[-90.26235,38.69973],[-90.26356,38.7004],[-90.26572,38.70129]]]}},{"type":"Feature","properties":{"GEOID":"29510118600","pop":3977,"pct_black":16.19,"pct_vacant":11.34,"medinck":64.07,"n_seg":141,"ample_slig":92.2,"well_maint":78.72,"paved":85.11,"c_paved":87.94,"no_mtrip":24.11,"ped_crossi":15.6,"curb_ramp":9.22,"h_tcanopy":57.01},"geometry":{"type":"Polygon","coordinates":[[[-90.26661,38.63416],[-90.26651,38.63508],[-90.26317,38.63477],[-90.26259,38.63763],[-90.2524,38.63547],[-90.25154,38.6381],[-90.23379,38.63442],[-90.23672,38.62599],[-90.24785,38.6282],[-90.26498,38.62586],[-90.2645,38.62875],[-90.26478,38.62965],[-90.26628,38.63211],[-90.26661,38.63416]]]}},{"type":"Feature","properties":{"GEOID":"29510113500","pop":2444,"pct_black":2.54,"pct_vacant":8.78,"medinck":58.42,"n_seg":95,"ample_slig":78.95,"well_maint":87.37,"paved":89.47,"c_paved":87.37,"no_mtrip":15.79,"ped_crossi":6.32,"curb_ramp":6.32,"h_tcanopy":53.25},"geometry":{"type":"Polygon","coordinates":[[[-90.28379,38.61227],[-90.28288,38.61716],[-90.28085,38.61693],[-90.28105,38.6191],[-90.28018,38.62315],[-90.27282,38.62401],[-90.27013,38.6241],[-90.26796,38.62383],[-90.26548,38.62322],[-90.26764,38.61263],[-90.27284,38.61135],[-90.27515,38.61098],[-90.28387,38.61183],[-90.28379,38.61227]]]}},{"type":"Feature","properties":{"GEOID":"29510117100","pop":1523,"pct_black":6.57,"pct_vacant":19.14,"medinck":53.9,"n_seg":55,"ample_slig":81.82,"well_maint":78.18,"paved":85.45,"c_paved":78.18,"no_mtrip":47.27,"ped_crossi":3.64,"curb_ramp":5.45,"h_tcanopy":67.92},"geometry":{"type":"Polygon","coordinates":[[[-90.26822,38.60985],[-90.26603,38.6206],[-90.26144,38.62008],[-90.25927,38.61912],[-90.25838,38.61986],[-90.25578,38.61958],[-90.25792,38.60876],[-90.26825,38.60974],[-90.26822,38.60985]]]}},{"type":"Feature","properties":{"GEOID":"29510115700","pop":3512,"pct_black":48.29,"pct_vacant":17.16,"medinck":46.9,"n_seg":50,"ample_slig":76.0,"well_maint":86.0,"paved":88.0,"c_paved":80.0,"no_mtrip":28.0,"ped_crossi":10.0,"curb_ramp":8.0,"h_tcanopy":57.14},"geometry":{"type":"Polygon","coordinates":[[[-90.25272,38.58581],[-90.25239,38.58617],[-90.25146,38.58592],[-90.24496,38.58524],[-90.24489,38.58467],[-90.22483,38.58217],[-90.22371,38.58207],[-90.2234,38.5822],[-90.22275,38.58208],[-90.22553,38.5804],[-90.22414,38.58009],[-90.22359,38.58031],[-90.22171,38.57945],[-90.22094,38.57952],[-90.21793,38.57826],[-90.22125,38.57684],[-90.2244,38.57772],[-90.22597,38.57882],[-90.22834,38.57875],[-90.22952,38.57892],[-90.22953,38.57909],[-90.2297,38.57914],[-90.24466,38.58101],[-90.25303,38.58545],[-90.25272,38.58581]]]}},{"type":"Feature","properties":{"GEOID":"29510121200","pop":2135,"pct_black":97.1,"pct_vacant":19.91,"medinck":30.05,"n_seg":44,"ample_slig":84.09,"well_maint":65.91,"paved":88.64,"c_paved":68.18,"no_mtrip":29.55,"ped_crossi":15.91,"curb_ramp":9.09,"h_tcanopy":54.29},"geometry":{"type":"Polygon","coordinates":[[[-90.22946,38.6421],[-90.22598,38.64816],[-90.22449,38.6475],[-90.2159,38.64572],[-90.21583,38.63958],[-90.21408,38.63956],[-90.21407,38.63899],[-90.2143,38.63887],[-90.21578,38.63885],[-90.21581,38.63846],[-90.2166,38.63888],[-90.21672,38.63866],[-90.22837,38.64108],[-90.22995,38.64124],[-90.22946,38.6421]]]}},{"type":"Feature","properties":{"GEOID":"29510115200","pop":2682,"pct_black":45.53,"pct_vacant":10.34,"medinck":40.06,"n_seg":68,"ample_slig":83.82,"well_maint":89.71,"paved":94.12,"c_paved":82.35,"no_mtrip":20.59,"ped_crossi":4.41,"curb_ramp":14.71,"h_tcanopy":63.33},"geometry":{"type":"Polygon","coordinates":[[[-90.27268,38.59228],[-90.27133,38.59433],[-90.27025,38.59956],[-90.26218,38.59868],[-90.26202,38.59868],[-90.26197,38.59901],[-90.25868,38.59867],[-90.25958,38.59269],[-90.25789,38.5925],[-90.25837,38.58981],[-90.25971,38.58993],[-90.25958,38.58892],[-90.25834,38.58824],[-90.26727,38.5812],[-90.26402,38.59042],[-90.27325,38.59147],[-90.27268,38.59228]]]}},{"type":"Feature","properties":{"GEOID":"29510108200","pop":1746,"pct_black":94.16,"pct_vacant":19.31,"medinck":36.23,"n_seg":47,"ample_slig":85.11,"well_maint":89.36,"paved":93.62,"c_paved":80.85,"no_mtrip":42.55,"ped_crossi":12.77,"curb_ramp":8.51,"h_tcanopy":71.43},"geometry":{"type":"Polygon","coordinates":[[[-90.25174,38.71889],[-90.24061,38.72326],[-90.24037,38.72288],[-90.24067,38.7226],[-90.24062,38.72232],[-90.24028,38.72213],[-90.23995,38.72217],[-90.23818,38.71927],[-90.2293,38.71833],[-90.22987,38.71492],[-90.23003,38.71486],[-90.24141,38.71607],[-90.25174,38.71889]]]}},{"type":"Feature","properties":{"GEOID":"29510108300","pop":1835,"pct_black":94.77,"pct_vacant":17.75,"medinck":40.91,"n_seg":43,"ample_slig":95.35,"well_maint":81.4,"paved":93.02,"c_paved":79.07,"no_mtrip":44.19,"ped_crossi":2.33,"curb_ramp":6.98,"h_tcanopy":69.77},"geometry":{"type":"Polygon","coordinates":[[[-90.24067,38.72259],[-90.24037,38.72288],[-90.24061,38.72326],[-90.22803,38.7282],[-90.22793,38.72632],[-90.2293,38.71833],[-90.23818,38.71927],[-90.23995,38.72217],[-90.24043,38.72216],[-90.24062,38.72232],[-90.24067,38.72259]]]}},{"type":"Feature","properties":{"GEOID":"29510112400","pop":4109,"pct_black":5.48,"pct_vacant":10.12,"medinck":73.82,"n_seg":52,"ample_slig":69.23,"well_maint":88.46,"paved":94.23,"c_paved":76.92,"no_mtrip":21.15,"ped_crossi":9.62,"curb_ramp":13.46,"h_tcanopy":47.92},"geometry":{"type":"Polygon","coordinates":[[[-90.26626,38.63524],[-90.2635,38.65156],[-90.2549,38.65086],[-90.25345,38.65022],[-90.25693,38.64532],[-90.25794,38.64245],[-90.26172,38.64323],[-90.26246,38.63821],[-90.26317,38.63477],[-90.26629,38.63506],[-90.26626,38.63524]]]}},{"type":"Feature","properties":{"GEOID":"29510115300","pop":4987,"pct_black":27.73,"pct_vacant":12.68,"medinck":49.53,"n_seg":85,"ample_slig":87.06,"well_maint":84.71,"paved":97.65,"c_paved":70.59,"no_mtrip":27.06,"ped_crossi":3.53,"curb_ramp":10.59,"h_tcanopy":45.0},"geometry":{"type":"Polygon","coordinates":[[[-90.26691,38.58149],[-90.25834,38.58824],[-90.24466,38.58101],[-90.2442,38.58094],[-90.24419,38.5808],[-90.25066,38.57293],[-90.26691,38.58149]]]}},{"type":"Feature","properties":{"GEOID":"29510117200","pop":4886,"pct_black":18.89,"pct_vacant":9.74,"medinck":96.03,"n_seg":72,"ample_slig":86.11,"well_maint":80.56,"paved":95.83,"c_paved":87.5,"no_mtrip":45.83,"ped_crossi":6.94,"curb_ramp":4.17,"h_tcanopy":73.91},"geometry":{"type":"Polygon","coordinates":[[[-90.25785,38.60907],[-90.25578,38.61958],[-90.24752,38.61884],[-90.24704,38.62153],[-90.24442,38.62129],[-90.24652,38.60768],[-90.25792,38.60876],[-90.25785,38.60907]]]}},{"type":"Feature","properties":{"GEOID":"29510109700","pop":1738,"pct_black":93.1,"pct_vacant":43.94,"medinck":41.77,"n_seg":145,"ample_slig":70.34,"well_maint":48.97,"paved":82.76,"c_paved":57.93,"no_mtrip":31.03,"ped_crossi":8.28,"curb_ramp":4.14,"h_tcanopy":57.85},"geometry":{"type":"Polygon","coordinates":[[[-90.21964,38.67156],[-90.21848,38.67302],[-90.2126,38.67867],[-90.2127,38.67877],[-90.20473,38.68299],[-90.19964,38.68524],[-90.1952,38.68758],[-90.1864,38.67478],[-90.18544,38.67239],[-90.18966,38.67119],[-90.19512,38.66922],[-90.2003,38.66642],[-90.20735,38.66409],[-90.20913,38.66768],[-90.21106,38.66905],[-90.21227,38.66962],[-90.21285,38.66872],[-90.21964,38.67156]]]}},{"type":"Feature","properties":{"GEOID":"29510106200","pop":1658,"pct_black":97.17,"pct_vacant":36.19,"medinck":24.22,"n_seg":47,"ample_slig":85.11,"well_maint":48.94,"paved":95.74,"c_paved":74.47,"no_mtrip":17.02,"ped_crossi":8.51,"curb_ramp":6.38,"h_tcanopy":84.09},"geometry":{"type":"Polygon","coordinates":[[[-90.28603,38.67565],[-90.27524,38.68928],[-90.27255,38.6869],[-90.27127,38.68603],[-90.27271,38.6819],[-90.27938,38.67207],[-90.28603,38.67565]]]}},{"type":"Feature","properties":{"GEOID":"29510109600","pop":3185,"pct_black":94.44,"pct_vacant":26.99,"medinck":32.1,"n_seg":125,"ample_slig":81.6,"well_maint":59.2,"paved":73.6,"c_paved":72.0,"no_mtrip":33.6,"ped_crossi":3.2,"curb_ramp":4.8,"h_tcanopy":57.14},"geometry":{"type":"Polygon","coordinates":[[[-90.23439,38.67944],[-90.23017,38.68227],[-90.23,38.68273],[-90.22883,38.68259],[-90.228,38.68208],[-90.22688,38.68221],[-90.22453,38.68423],[-90.21822,38.68752],[-90.217,38.68627],[-90.21045,38.68974],[-90.2022,38.69348],[-90.1952,38.68758],[-90.19964,38.68524],[-90.20473,38.68299],[-90.2127,38.67877],[-90.2126,38.67867],[-90.21848,38.67302],[-90.21964,38.67156],[-90.22138,38.67224],[-90.22227,38.67321],[-90.22251,38.67319],[-90.22511,38.67433],[-90.23032,38.67747],[-90.23455,38.67934],[-90.23439,38.67944]]]}},{"type":"Feature","properties":{"GEOID":"29510118100","pop":1190,"pct_black":30.92,"pct_vacant":18.46,"medinck":66.09,"n_seg":68,"ample_slig":76.47,"well_maint":75.0,"paved":86.76,"c_paved":67.65,"no_mtrip":17.65,"ped_crossi":8.82,"curb_ramp":5.88,"h_tcanopy":52.54},"geometry":{"type":"Polygon","coordinates":[[[-90.26601,38.62065],[-90.26498,38.62586],[-90.24785,38.6282],[-90.24213,38.62711],[-90.24335,38.62343],[-90.24434,38.62177],[-90.24442,38.62129],[-90.24704,38.62153],[-90.24752,38.61884],[-90.25838,38.61986],[-90.25927,38.61912],[-90.26144,38.62008],[-90.26601,38.62065]]]}},{"type":"Feature","properties":{"GEOID":"29510117400","pop":4004,"pct_black":20.03,"pct_vacant":10.57,"medinck":86.47,"n_seg":69,"ample_slig":82.61,"well_maint":97.1,"paved":95.65,"c_paved":81.16,"no_mtrip":28.99,"ped_crossi":4.35,"curb_ramp":7.25,"h_tcanopy":39.71},"geometry":{"type":"Polygon","coordinates":[[[-90.24644,38.60798],[-90.24551,38.61396],[-90.24053,38.6135],[-90.22859,38.61198],[-90.23015,38.60443],[-90.23322,38.60525],[-90.24159,38.60624],[-90.24139,38.60719],[-90.24652,38.60768],[-90.24644,38.60798]]]}},{"type":"Feature","properties":{"GEOID":"29510126700","pop":804,"pct_black":73.63,"pct_vacant":57.99,"medinck":44.17,"n_seg":108,"ample_slig":75.0,"well_maint":50.0,"paved":71.3,"c_paved":61.11,"no_mtrip":36.11,"ped_crossi":5.56,"curb_ramp":6.48,"h_tcanopy":42.11},"geometry":{"type":"Polygon","coordinates":[[[-90.20735,38.66409],[-90.2003,38.66642],[-90.19512,38.66922],[-90.18966,38.67119],[-90.18544,38.67239],[-90.1826,38.66538],[-90.18104,38.65928],[-90.19386,38.65526],[-90.20403,38.6574],[-90.20735,38.66409]]]}},{"type":"Feature","properties":{"GEOID":"29510127700","pop":2166,"pct_black":95.11,"pct_vacant":36.66,"medinck":25.82,"n_seg":100,"ample_slig":83.0,"well_maint":46.0,"paved":96.0,"c_paved":59.0,"no_mtrip":27.0,"ped_crossi":6.0,"curb_ramp":4.0,"h_tcanopy":45.16},"geometry":{"type":"Polygon","coordinates":[[[-90.23843,38.65102],[-90.23706,38.65298],[-90.23766,38.65324],[-90.23587,38.6558],[-90.23554,38.65604],[-90.23551,38.65629],[-90.23371,38.65883],[-90.23477,38.65929],[-90.23344,38.66114],[-90.22431,38.65717],[-90.22469,38.65662],[-90.21917,38.65412],[-90.21995,38.65301],[-90.21995,38.64657],[-90.22449,38.6475],[-90.22598,38.64816],[-90.22731,38.64587],[-90.23857,38.65082],[-90.23843,38.65102]]]}},{"type":"Feature","properties":{"GEOID":"29510127800","pop":3543,"pct_black":53.49,"pct_vacant":12.73,"medinck":21.68,"n_seg":117,"ample_slig":94.02,"well_maint":81.2,"paved":83.76,"c_paved":85.47,"no_mtrip":17.95,"ped_crossi":9.4,"curb_ramp":11.11,"h_tcanopy":41.77},"geometry":{"type":"Polygon","coordinates":[[[-90.23665,38.62618],[-90.23266,38.63742],[-90.22995,38.64124],[-90.22837,38.64108],[-90.21672,38.63866],[-90.21854,38.63325],[-90.21675,38.63282],[-90.2173,38.6312],[-90.21549,38.63107],[-90.21808,38.6268],[-90.21814,38.62402],[-90.22158,38.62446],[-90.22414,38.62498],[-90.22486,38.62352],[-90.23672,38.62599],[-90.23665,38.62618]]]}},{"type":"Feature","properties":{"GEOID":"29510103100","pop":3072,"pct_black":14.45,"pct_vacant":5.31,"medinck":57.68,"n_seg":67,"ample_slig":86.57,"well_maint":91.04,"paved":91.04,"c_paved":88.06,"no_mtrip":40.3,"ped_crossi":2.99,"curb_ramp":8.96,"h_tcanopy":54.1},"geometry":{"type":"Polygon","coordinates":[[[-90.31958,38.59224],[-90.31637,38.59209],[-90.3161,38.59379],[-90.30205,38.59236],[-90.30306,38.59187],[-90.30455,38.58253],[-90.30936,38.58303],[-90.31078,38.58328],[-90.31174,38.5852],[-90.31303,38.58695],[-90.31624,38.58469],[-90.31958,38.59224]]]}},{"type":"Feature","properties":{"GEOID":"29510103400","pop":1856,"pct_black":3.99,"pct_vacant":6.11,"medinck":65.62,"n_seg":53,"ample_slig":84.91,"well_maint":92.45,"paved":86.79,"c_paved":81.13,"no_mtrip":37.74,"ped_crossi":3.77,"curb_ramp":1.89,"h_tcanopy":58.49},"geometry":{"type":"Polygon","coordinates":[[[-90.30752,38.60414],[-90.3072,38.60613],[-90.3067,38.60808],[-90.30662,38.60878],[-90.30689,38.60888],[-90.30492,38.61125],[-90.3044,38.61137],[-90.3048,38.61166],[-90.30249,38.6134],[-90.30233,38.61351],[-90.30174,38.61351],[-90.30029,38.61259],[-90.29955,38.61236],[-90.29844,38.61235],[-90.29632,38.61261],[-90.29686,38.6095],[-90.29589,38.60941],[-90.29673,38.60481],[-90.29773,38.60421],[-90.29888,38.60265],[-90.30762,38.60355],[-90.30752,38.60414]]]}},{"type":"Feature","properties":{"GEOID":"29510102500","pop":1924,"pct_black":4.05,"pct_vacant":6.87,"medinck":62.42,"n_seg":44,"ample_slig":95.45,"well_maint":90.91,"paved":100.0,"c_paved":93.18,"no_mtrip":29.55,"ped_crossi":9.09,"curb_ramp":6.82,"h_tcanopy":58.14},"geometry":{"type":"Polygon","coordinates":[[[-90.28586,38.5694],[-90.28193,38.57294],[-90.27498,38.57706],[-90.27202,38.57787],[-90.2691,38.57631],[-90.26947,38.57527],[-90.27098,38.57282],[-90.27716,38.56603],[-90.28031,38.56727],[-90.28286,38.56867],[-90.28433,38.56784],[-90.28586,38.5694]]]}},{"type":"Feature","properties":{"GEOID":"29510108100","pop":3341,"pct_black":95.42,"pct_vacant":25.94,"medinck":42.44,"n_seg":86,"ample_slig":91.86,"well_maint":80.23,"paved":89.53,"c_paved":84.88,"no_mtrip":30.23,"ped_crossi":4.65,"curb_ramp":9.3,"h_tcanopy":71.08},"geometry":{"type":"Polygon","coordinates":[[[-90.254,38.71602],[-90.25177,38.71885],[-90.24141,38.71607],[-90.22987,38.71492],[-90.23028,38.71262],[-90.23039,38.71115],[-90.23004,38.70436],[-90.22934,38.70249],[-90.22957,38.70218],[-90.22935,38.70117],[-90.22938,38.70026],[-90.22952,38.6998],[-90.22972,38.69956],[-90.23104,38.69881],[-90.23189,38.69785],[-90.23855,38.69422],[-90.24947,38.70682],[-90.24411,38.71226],[-90.25123,38.71469],[-90.254,38.71602]]]}},{"type":"Feature","properties":{"GEOID":"29510102300","pop":2568,"pct_black":29.13,"pct_vacant":2.78,"medinck":58.75,"n_seg":54,"ample_slig":88.89,"well_maint":74.07,"paved":100.0,"c_paved":81.48,"no_mtrip":27.78,"ped_crossi":5.56,"curb_ramp":3.7,"h_tcanopy":62.0},"geometry":{"type":"Polygon","coordinates":[[[-90.29702,38.56237],[-90.29332,38.5648],[-90.28643,38.5689],[-90.28586,38.5694],[-90.28433,38.56784],[-90.28286,38.56867],[-90.28031,38.56727],[-90.27716,38.56603],[-90.287,38.55547],[-90.28977,38.55707],[-90.29702,38.56237]]]}},{"type":"Feature","properties":{"GEOID":"29510102400","pop":2636,"pct_black":20.86,"pct_vacant":10.18,"medinck":53.88,"n_seg":33,"ample_slig":87.88,"well_maint":100.0,"paved":96.97,"c_paved":84.85,"no_mtrip":30.3,"ped_crossi":15.15,"curb_ramp":9.09,"h_tcanopy":40.62},"geometry":{"type":"Polygon","coordinates":[[[-90.28452,38.57405],[-90.28238,38.57809],[-90.282,38.57862],[-90.28151,38.57902],[-90.27985,38.57983],[-90.27935,38.58024],[-90.27882,38.58094],[-90.27711,38.58074],[-90.27581,38.57974],[-90.27074,38.57969],[-90.26981,38.57921],[-90.26966,38.57933],[-90.26832,38.57865],[-90.2691,38.57631],[-90.27202,38.57787],[-90.27445,38.57726],[-90.27597,38.57656],[-90.28105,38.5735],[-90.28249,38.57251],[-90.28377,38.57132],[-90.28452,38.57405]]]}},{"type":"Feature","properties":{"GEOID":"29510101800","pop":3146,"pct_black":35.16,"pct_vacant":22.03,"medinck":38.75,"n_seg":82,"ample_slig":92.68,"well_maint":82.93,"paved":92.68,"c_paved":59.76,"no_mtrip":20.73,"ped_crossi":12.2,"curb_ramp":8.54,"h_tcanopy":58.21},"geometry":{"type":"Polygon","coordinates":[[[-90.2691,38.53757],[-90.25709,38.54814],[-90.26098,38.55064],[-90.25397,38.5568],[-90.25201,38.55834],[-90.24921,38.56164],[-90.2494,38.56184],[-90.24637,38.56266],[-90.24614,38.56207],[-90.24622,38.56187],[-90.24246,38.5599],[-90.24167,38.55973],[-90.23807,38.55807],[-90.2489,38.54478],[-90.25778,38.53201],[-90.2631,38.53405],[-90.26424,38.53373],[-90.26533,38.53369],[-90.26694,38.53423],[-90.26812,38.53573],[-90.26851,38.53699],[-90.2691,38.53757]]]}},{"type":"Feature","properties":{"GEOID":"29510102100","pop":2410,"pct_black":5.44,"pct_vacant":11.04,"medinck":58.65,"n_seg":70,"ample_slig":94.29,"well_maint":80.0,"paved":95.71,"c_paved":94.29,"no_mtrip":40.0,"ped_crossi":7.14,"curb_ramp":11.43,"h_tcanopy":47.14},"geometry":{"type":"Polygon","coordinates":[[[-90.31027,38.57562],[-90.30737,38.57524],[-90.30038,38.57467],[-90.2918,38.57378],[-90.28507,38.57012],[-90.28643,38.5689],[-90.29332,38.5648],[-90.29702,38.56237],[-90.31042,38.57563],[-90.31027,38.57562]]]}},{"type":"Feature","properties":{"GEOID":"29510102200","pop":5292,"pct_black":4.35,"pct_vacant":6.96,"medinck":86.9,"n_seg":137,"ample_slig":91.24,"well_maint":94.16,"paved":97.08,"c_paved":91.24,"no_mtrip":39.42,"ped_crossi":8.76,"curb_ramp":8.76,"h_tcanopy":49.22},"geometry":{"type":"Polygon","coordinates":[[[-90.31624,38.58469],[-90.31303,38.58695],[-90.31174,38.5852],[-90.31078,38.58328],[-90.31049,38.58318],[-90.2963,38.58166],[-90.2955,38.58163],[-90.29181,38.58231],[-90.27882,38.58094],[-90.27957,38.58005],[-90.28151,38.57902],[-90.28238,38.57809],[-90.28452,38.57405],[-90.28377,38.57132],[-90.28507,38.57012],[-90.2918,38.57378],[-90.30038,38.57467],[-90.30737,38.57524],[-90.31042,38.57563],[-90.31358,38.57877],[-90.31624,38.58469]]]}},{"type":"Feature","properties":{"GEOID":"29510101100","pop":2254,"pct_black":10.6,"pct_vacant":3.47,"medinck":56.14,"n_seg":68,"ample_slig":92.65,"well_maint":80.88,"paved":89.71,"c_paved":94.12,"no_mtrip":33.82,"ped_crossi":5.88,"curb_ramp":10.29,"h_tcanopy":63.08},"geometry":{"type":"Polygon","coordinates":[[[-90.28695,38.55552],[-90.28291,38.55984],[-90.2829,38.55973],[-90.2811,38.55852],[-90.28097,38.55828],[-90.27875,38.55667],[-90.2781,38.55643],[-90.27434,38.55627],[-90.27262,38.55584],[-90.27212,38.55642],[-90.26708,38.56082],[-90.26234,38.55834],[-90.26711,38.5542],[-90.26578,38.55343],[-90.27051,38.55301],[-90.27152,38.54871],[-90.27266,38.5486],[-90.27409,38.54938],[-90.27798,38.55058],[-90.2808,38.55232],[-90.28695,38.55552]]]}},{"type":"Feature","properties":{"GEOID":"29510101200","pop":3563,"pct_black":19.96,"pct_vacant":9.15,"medinck":86.9,"n_seg":64,"ample_slig":93.75,"well_maint":93.75,"paved":100.0,"c_paved":98.44,"no_mtrip":39.06,"ped_crossi":4.69,"curb_ramp":1.56,"h_tcanopy":55.93},"geometry":{"type":"Polygon","coordinates":[[[-90.28291,38.55984],[-90.27378,38.56973],[-90.26985,38.56773],[-90.27311,38.56394],[-90.26708,38.56082],[-90.27212,38.55642],[-90.27262,38.55584],[-90.27434,38.55627],[-90.2781,38.55643],[-90.27875,38.55667],[-90.28097,38.55828],[-90.2811,38.55852],[-90.2829,38.55973],[-90.28291,38.55984]]]}},{"type":"Feature","properties":{"GEOID":"29510101300","pop":3542,"pct_black":17.42,"pct_vacant":4.07,"medinck":64.69,"n_seg":106,"ample_slig":89.62,"well_maint":86.79,"paved":99.06,"c_paved":87.74,"no_mtrip":49.06,"ped_crossi":14.15,"curb_ramp":10.38,"h_tcanopy":45.54},"geometry":{"type":"Polygon","coordinates":[[[-90.27362,38.5699],[-90.27098,38.57282],[-90.26947,38.57527],[-90.2691,38.57631],[-90.26043,38.57178],[-90.25439,38.56855],[-90.25965,38.56248],[-90.25512,38.56013],[-90.25627,38.55952],[-90.25766,38.55847],[-90.25864,38.55743],[-90.25913,38.55668],[-90.27311,38.56394],[-90.26985,38.56773],[-90.27378,38.56973],[-90.27362,38.5699]]]}},{"type":"Feature","properties":{"GEOID":"29510101400","pop":2803,"pct_black":26.44,"pct_vacant":18.5,"medinck":64.87,"n_seg":47,"ample_slig":89.36,"well_maint":89.36,"paved":95.74,"c_paved":72.34,"no_mtrip":31.91,"ped_crossi":8.51,"curb_ramp":17.02,"h_tcanopy":43.18},"geometry":{"type":"Polygon","coordinates":[[[-90.25961,38.5625],[-90.25439,38.56855],[-90.24599,38.56409],[-90.24658,38.56347],[-90.24637,38.56266],[-90.2494,38.56184],[-90.24921,38.56164],[-90.25201,38.55834],[-90.25596,38.55503],[-90.25913,38.55668],[-90.25864,38.55743],[-90.25766,38.55847],[-90.25627,38.55952],[-90.25512,38.56013],[-90.25961,38.5625]]]}},{"type":"Feature","properties":{"GEOID":"29510101500","pop":2682,"pct_black":31.32,"pct_vacant":24.01,"medinck":37.5,"n_seg":93,"ample_slig":93.55,"well_maint":68.82,"paved":86.02,"c_paved":78.49,"no_mtrip":34.41,"ped_crossi":5.38,"curb_ramp":10.75,"h_tcanopy":63.41},"geometry":{"type":"Polygon","coordinates":[[[-90.27266,38.5486],[-90.27152,38.54871],[-90.27051,38.55301],[-90.26578,38.55343],[-90.26711,38.5542],[-90.26234,38.55834],[-90.25596,38.55503],[-90.26098,38.55064],[-90.25709,38.54814],[-90.2691,38.53757],[-90.27103,38.53868],[-90.27139,38.53933],[-90.27138,38.54014],[-90.27054,38.54161],[-90.27172,38.54454],[-90.27157,38.54486],[-90.27218,38.54679],[-90.2723,38.54834],[-90.27266,38.5486]]]}},{"type":"Feature","properties":{"GEOID":"29510112100","pop":4411,"pct_black":19.7,"pct_vacant":9.42,"medinck":64.65,"n_seg":307,"ample_slig":86.97,"well_maint":49.51,"paved":88.6,"c_paved":78.18,"no_mtrip":50.81,"ped_crossi":11.07,"curb_ramp":23.13,"h_tcanopy":63.33},"geometry":{"type":"Polygon","coordinates":[[[-90.30445,38.63282],[-90.30378,38.63542],[-90.30288,38.64074],[-90.30141,38.6451],[-90.30098,38.6476],[-90.28533,38.64606],[-90.28547,38.64651],[-90.28516,38.64864],[-90.28296,38.64842],[-90.28208,38.65366],[-90.27507,38.65303],[-90.27263,38.65249],[-90.2635,38.65156],[-90.26622,38.63547],[-90.26629,38.63506],[-90.26651,38.63508],[-90.2666,38.63456],[-90.26659,38.63368],[-90.26628,38.63211],[-90.26478,38.62965],[-90.2645,38.62875],[-90.30453,38.63263],[-90.30445,38.63282]]]}},{"type":"Feature","properties":{"GEOID":"29510116500","pop":3724,"pct_black":26.96,"pct_vacant":10.77,"medinck":78.11,"n_seg":49,"ample_slig":85.71,"well_maint":100.0,"paved":97.96,"c_paved":79.59,"no_mtrip":42.86,"ped_crossi":4.08,"curb_ramp":6.12,"h_tcanopy":23.4},"geometry":{"type":"Polygon","coordinates":[[[-90.24299,38.59782],[-90.24207,38.6039],[-90.24159,38.60624],[-90.23322,38.60525],[-90.23125,38.60473],[-90.23306,38.59606],[-90.24306,38.59732],[-90.24299,38.59782]]]}},{"type":"Feature","properties":{"GEOID":"29510110300","pop":1667,"pct_black":99.82,"pct_vacant":42.59,"medinck":29.17,"n_seg":51,"ample_slig":60.78,"well_maint":62.75,"paved":98.04,"c_paved":37.25,"no_mtrip":37.25,"ped_crossi":1.96,"curb_ramp":7.84,"h_tcanopy":73.91},"geometry":{"type":"Polygon","coordinates":[[[-90.24032,38.66437],[-90.23645,38.66977],[-90.23336,38.66842],[-90.23179,38.67066],[-90.22724,38.66867],[-90.22885,38.66644],[-90.22502,38.66476],[-90.22899,38.6592],[-90.24045,38.66418],[-90.24032,38.66437]]]}},{"type":"Feature","properties":{"GEOID":"29510103700","pop":2544,"pct_black":11.48,"pct_vacant":9.53,"medinck":74.32,"n_seg":53,"ample_slig":71.7,"well_maint":100.0,"paved":96.23,"c_paved":77.36,"no_mtrip":39.62,"ped_crossi":7.55,"curb_ramp":9.43,"h_tcanopy":74.51},"geometry":{"type":"Polygon","coordinates":[[[-90.29877,38.60286],[-90.29773,38.60421],[-90.29673,38.60481],[-90.29589,38.60941],[-90.29686,38.6095],[-90.29632,38.61261],[-90.2954,38.6129],[-90.29493,38.61291],[-90.28459,38.61191],[-90.28568,38.60665],[-90.28892,38.60697],[-90.28959,38.60601],[-90.29127,38.60413],[-90.2917,38.60306],[-90.29192,38.60195],[-90.29888,38.60265],[-90.29877,38.60286]]]}},{"type":"Feature","properties":{"GEOID":"29510103800","pop":3769,"pct_black":3.53,"pct_vacant":0.52,"medinck":71.56,"n_seg":91,"ample_slig":85.71,"well_maint":93.41,"paved":96.7,"c_paved":91.21,"no_mtrip":36.26,"ped_crossi":7.69,"curb_ramp":10.99,"h_tcanopy":48.86},"geometry":{"type":"Polygon","coordinates":[[[-90.32052,38.59415],[-90.31886,38.59831],[-90.31758,38.5991],[-90.31419,38.60043],[-90.313,38.60105],[-90.31226,38.60164],[-90.31033,38.60377],[-90.29888,38.60265],[-90.30008,38.60007],[-90.3005,38.59747],[-90.30205,38.59236],[-90.3161,38.59379],[-90.31637,38.59209],[-90.31963,38.59224],[-90.32052,38.59415]]]}},{"type":"Feature","properties":{"GEOID":"29510119102","pop":3486,"pct_black":21.4,"pct_vacant":6.11,"medinck":55.92,"n_seg":30,"ample_slig":80.0,"well_maint":96.67,"paved":86.67,"c_paved":86.67,"no_mtrip":26.67,"ped_crossi":16.67,"curb_ramp":20.0,"h_tcanopy":60.71},"geometry":{"type":"Polygon","coordinates":[[[-90.26189,38.64205],[-90.26172,38.64323],[-90.25794,38.64245],[-90.25693,38.64532],[-90.25623,38.64634],[-90.24519,38.64149],[-90.24626,38.63851],[-90.26193,38.64176],[-90.26189,38.64205]]]}},{"type":"Feature","properties":{"GEOID":"29510126800","pop":3209,"pct_black":12.46,"pct_vacant":8.48,"medinck":71.65,"n_seg":130,"ample_slig":94.62,"well_maint":76.92,"paved":86.92,"c_paved":91.54,"no_mtrip":21.54,"ped_crossi":3.08,"curb_ramp":11.54,"h_tcanopy":53.91},"geometry":{"type":"Polygon","coordinates":[[[-90.31869,38.59874],[-90.3109,38.61831],[-90.31102,38.61839],[-90.30934,38.62697],[-90.30122,38.62619],[-90.30125,38.62557],[-90.30105,38.62499],[-90.29927,38.6247],[-90.29753,38.6239],[-90.29651,38.62246],[-90.29572,38.62173],[-90.29505,38.62059],[-90.29336,38.62131],[-90.29202,38.62167],[-90.29012,38.62196],[-90.29037,38.62063],[-90.29346,38.61918],[-90.3006,38.61468],[-90.3048,38.61166],[-90.3044,38.61137],[-90.30492,38.61125],[-90.30689,38.60888],[-90.30662,38.60878],[-90.3067,38.60808],[-90.3072,38.60613],[-90.30762,38.60355],[-90.31033,38.60377],[-90.31226,38.60164],[-90.31327,38.60088],[-90.31721,38.59927],[-90.31886,38.59831],[-90.31869,38.59874]]]}},{"type":"Feature","properties":{"GEOID":"29510126900","pop":3899,"pct_black":91.25,"pct_vacant":26.3,"medinck":46.2,"n_seg":164,"ample_slig":90.24,"well_maint":70.73,"paved":93.29,"c_paved":76.83,"no_mtrip":25.0,"ped_crossi":3.05,"curb_ramp":6.71,"h_tcanopy":58.7},"geometry":{"type":"Polygon","coordinates":[[[-90.27524,38.68928],[-90.26572,38.70129],[-90.2627,38.69995],[-90.26183,38.69936],[-90.26116,38.69865],[-90.26055,38.69744],[-90.26033,38.69498],[-90.26008,38.69406],[-90.25926,38.6927],[-90.25838,38.69189],[-90.25673,38.69098],[-90.24562,38.6862],[-90.24679,38.68557],[-90.24716,38.68507],[-90.24796,38.68172],[-90.2419,38.67912],[-90.23928,38.6826],[-90.23823,38.68228],[-90.23655,38.68207],[-90.23285,38.68252],[-90.23276,38.682],[-90.23017,38.68227],[-90.23475,38.6792],[-90.2357,38.67838],[-90.23468,38.67794],[-90.23631,38.67682],[-90.23712,38.67717],[-90.23945,38.67401],[-90.23974,38.67414],[-90.24131,38.67191],[-90.25116,38.67604],[-90.26591,38.6826],[-90.27225,38.68666],[-90.27524,38.68928]]]}},{"type":"Feature","properties":{"GEOID":"29510127000","pop":1599,"pct_black":82.36,"pct_vacant":18.86,"medinck":23.99,"n_seg":245,"ample_slig":86.53,"well_maint":26.53,"paved":66.53,"c_paved":80.41,"no_mtrip":51.84,"ped_crossi":3.67,"curb_ramp":9.39,"h_tcanopy":70.27},"geometry":{"type":"Polygon","coordinates":[[[-90.23855,38.69422],[-90.23189,38.69785],[-90.23094,38.69888],[-90.22972,38.69956],[-90.22941,38.70008],[-90.22935,38.70117],[-90.22957,38.70218],[-90.22934,38.70249],[-90.22995,38.70393],[-90.23019,38.70594],[-90.23038,38.7117],[-90.22793,38.72632],[-90.22803,38.7282],[-90.22516,38.72895],[-90.22187,38.7301],[-90.21976,38.7323],[-90.21835,38.73339],[-90.21256,38.73626],[-90.20795,38.73974],[-90.19735,38.74925],[-90.19546,38.75153],[-90.19198,38.7548],[-90.18831,38.75876],[-90.18628,38.7614],[-90.18505,38.76483],[-90.18387,38.77059],[-90.18419,38.77437],[-90.17511,38.77343],[-90.16627,38.77273],[-90.1713,38.76658],[-90.1751,38.76028],[-90.1763,38.75448],[-90.18328,38.74701],[-90.18361,38.74675],[-90.1913,38.74298],[-90.20518,38.7322],[-90.20991,38.72605],[-90.21141,38.72135],[-90.21191,38.71795],[-90.212,38.71178],[-90.2092,38.70278],[-90.2022,38.69348],[-90.21045,38.68974],[-90.217,38.68627],[-90.21822,38.68752],[-90.22453,38.68423],[-90.22648,38.68248],[-90.22851,38.68347],[-90.23008,38.68442],[-90.23813,38.69358],[-90.23855,38.69422]]]}},{"type":"Feature","properties":{"GEOID":"29510127400","pop":4171,"pct_black":62.79,"pct_vacant":10.33,"medinck":53.58,"n_seg":171,"ample_slig":90.64,"well_maint":72.51,"paved":84.8,"c_paved":83.63,"no_mtrip":15.2,"ped_crossi":8.77,"curb_ramp":11.7,"h_tcanopy":47.26},"geometry":{"type":"Polygon","coordinates":[[[-90.22629,38.61937],[-90.22486,38.62352],[-90.22414,38.62498],[-90.22158,38.62446],[-90.21814,38.62402],[-90.21808,38.6268],[-90.21549,38.63107],[-90.21046,38.63013],[-90.21128,38.62764],[-90.21119,38.62751],[-90.21061,38.62738],[-90.21093,38.6268],[-90.21109,38.62607],[-90.20692,38.62468],[-90.20468,38.62426],[-90.19987,38.62296],[-90.1933,38.62145],[-90.19165,38.62091],[-90.18784,38.61938],[-90.18241,38.61802],[-90.1845,38.61158],[-90.185,38.61072],[-90.18891,38.61205],[-90.18962,38.612],[-90.19175,38.61257],[-90.19236,38.61288],[-90.19423,38.61328],[-90.19507,38.61371],[-90.1965,38.61218],[-90.19759,38.6128],[-90.19692,38.61443],[-90.19812,38.61426],[-90.19908,38.61466],[-90.19939,38.61409],[-90.20314,38.61507],[-90.2036,38.61549],[-90.20426,38.61477],[-90.20592,38.61537],[-90.21312,38.61735],[-90.22637,38.61916],[-90.22629,38.61937]]]}},{"type":"Feature","properties":{"GEOID":"29510123100","pop":3540,"pct_black":43.87,"pct_vacant":11.13,"medinck":63.48,"n_seg":60,"ample_slig":75.0,"well_maint":83.33,"paved":83.33,"c_paved":81.67,"no_mtrip":23.33,"ped_crossi":3.33,"curb_ramp":0.0,"h_tcanopy":39.62},"geometry":{"type":"Polygon","coordinates":[[[-90.23006,38.60487],[-90.2271,38.6192],[-90.22014,38.61834],[-90.2234,38.60309],[-90.22567,38.60375],[-90.22647,38.6034],[-90.23015,38.60443],[-90.23006,38.60487]]]}},{"type":"Feature","properties":{"GEOID":"29510126600","pop":2587,"pct_black":83.03,"pct_vacant":23.96,"medinck":15.1,"n_seg":166,"ample_slig":86.75,"well_maint":51.81,"paved":83.13,"c_paved":68.07,"no_mtrip":26.51,"ped_crossi":4.82,"curb_ramp":5.42,"h_tcanopy":46.72},"geometry":{"type":"Polygon","coordinates":[[[-90.20517,38.64404],[-90.20443,38.64623],[-90.20439,38.64668],[-90.20186,38.65403],[-90.20367,38.65669],[-90.20403,38.6574],[-90.19386,38.65526],[-90.18104,38.65928],[-90.1777,38.64278],[-90.17777,38.64091],[-90.18324,38.64048],[-90.1832,38.63976],[-90.18637,38.63953],[-90.20515,38.64346],[-90.20517,38.64404]]]}},{"type":"Feature","properties":{"GEOID":"29510114102","pop":4278,"pct_black":2.03,"pct_vacant":5.55,"medinck":75.67,"n_seg":86,"ample_slig":86.05,"well_maint":97.67,"paved":96.51,"c_paved":97.67,"no_mtrip":46.51,"ped_crossi":8.14,"curb_ramp":10.47,"h_tcanopy":48.19},"geometry":{"type":"Polygon","coordinates":[[[-90.30453,38.58265],[-90.30306,38.59187],[-90.30205,38.59236],[-90.3005,38.59747],[-90.29102,38.59652],[-90.29169,38.59253],[-90.2916,38.59156],[-90.29237,38.5873],[-90.29251,38.58715],[-90.29248,38.58673],[-90.29333,38.58204],[-90.29572,38.58162],[-90.30386,38.58244],[-90.30455,38.58253],[-90.30453,38.58265]]]}},{"type":"Feature","properties":{"GEOID":"29510116302","pop":2392,"pct_black":31.06,"pct_vacant":24.69,"medinck":38.1,"n_seg":35,"ample_slig":71.43,"well_maint":97.14,"paved":91.43,"c_paved":74.29,"no_mtrip":34.29,"ped_crossi":8.57,"curb_ramp":5.71,"h_tcanopy":68.75},"geometry":{"type":"Polygon","coordinates":[[[-90.25229,38.5863],[-90.25207,38.5868],[-90.25139,38.59138],[-90.25107,38.59146],[-90.2517,38.59233],[-90.25166,38.59316],[-90.25155,38.59375],[-90.25105,38.59416],[-90.25091,38.5945],[-90.24364,38.5938],[-90.24496,38.58524],[-90.25146,38.58592],[-90.25239,38.58617],[-90.25229,38.5863]]]}},{"type":"Feature","properties":{"GEOID":"29510116301","pop":3198,"pct_black":9.44,"pct_vacant":19.4,"medinck":92.54,"n_seg":38,"ample_slig":86.84,"well_maint":94.74,"paved":100.0,"c_paved":94.74,"no_mtrip":47.37,"ped_crossi":13.16,"curb_ramp":10.53,"h_tcanopy":42.86},"geometry":{"type":"Polygon","coordinates":[[[-90.25089,38.59464],[-90.24953,38.60352],[-90.24225,38.60271],[-90.24364,38.5938],[-90.25091,38.5945],[-90.25089,38.59464]]]}},{"type":"Feature","properties":{"GEOID":"29510119101","pop":2381,"pct_black":33.52,"pct_vacant":16.45,"medinck":51.98,"n_seg":29,"ample_slig":75.86,"well_maint":100.0,"paved":86.21,"c_paved":89.66,"no_mtrip":31.03,"ped_crossi":10.34,"curb_ramp":6.9,"h_tcanopy":60.0},"geometry":{"type":"Polygon","coordinates":[[[-90.26257,38.63772],[-90.26193,38.64176],[-90.24626,38.63851],[-90.24672,38.63711],[-90.25154,38.6381],[-90.2524,38.63547],[-90.26259,38.63763],[-90.26257,38.63772]]]}},{"type":"Feature","properties":{"GEOID":"29510114101","pop":3757,"pct_black":10.94,"pct_vacant":8.95,"medinck":50.33,"n_seg":55,"ample_slig":78.18,"well_maint":98.18,"paved":100.0,"c_paved":89.09,"no_mtrip":43.64,"ped_crossi":7.27,"curb_ramp":9.09,"h_tcanopy":67.31},"geometry":{"type":"Polygon","coordinates":[[[-90.29168,38.59267],[-90.29102,38.59652],[-90.27131,38.5944],[-90.27466,38.58947],[-90.29166,38.59127],[-90.29157,38.59199],[-90.29168,38.59267]]]}},{"type":"Feature","properties":{"GEOID":"29510127100","pop":1455,"pct_black":84.19,"pct_vacant":29.42,"medinck":16.53,"n_seg":81,"ample_slig":88.89,"well_maint":51.85,"paved":91.36,"c_paved":59.26,"no_mtrip":18.52,"ped_crossi":6.17,"curb_ramp":3.7,"h_tcanopy":64.38},"geometry":{"type":"Polygon","coordinates":[[[-90.21998,38.65216],[-90.21995,38.65301],[-90.21917,38.65412],[-90.21762,38.65337],[-90.21455,38.65767],[-90.21325,38.65722],[-90.2024,38.65494],[-90.20186,38.65403],[-90.20439,38.64668],[-90.20443,38.64623],[-90.20517,38.64404],[-90.20515,38.64346],[-90.21995,38.64657],[-90.21998,38.65216]]]}},{"type":"Feature","properties":{"GEOID":"29510127200","pop":4466,"pct_black":41.09,"pct_vacant":10.81,"medinck":69.45,"n_seg":102,"ample_slig":84.31,"well_maint":87.25,"paved":94.12,"c_paved":90.2,"no_mtrip":29.41,"ped_crossi":2.94,"curb_ramp":11.76,"h_tcanopy":63.83},"geometry":{"type":"Polygon","coordinates":[[[-90.29184,38.60237],[-90.29159,38.60343],[-90.29127,38.60413],[-90.28959,38.60601],[-90.28892,38.60697],[-90.28568,38.60665],[-90.28459,38.61191],[-90.27515,38.61098],[-90.27284,38.61135],[-90.26764,38.61263],[-90.27021,38.59974],[-90.29192,38.60195],[-90.29184,38.60237]]]}},{"type":"Feature","properties":{"GEOID":"29510127300","pop":4626,"pct_black":55.62,"pct_vacant":10.61,"medinck":63.53,"n_seg":113,"ample_slig":86.73,"well_maint":82.3,"paved":94.69,"c_paved":85.84,"no_mtrip":22.12,"ped_crossi":9.73,"curb_ramp":9.73,"h_tcanopy":60.38},"geometry":{"type":"Polygon","coordinates":[[[-90.24539,38.61477],[-90.24434,38.62177],[-90.24335,38.62343],[-90.24213,38.62711],[-90.22486,38.62352],[-90.22637,38.61916],[-90.2271,38.6192],[-90.22859,38.61198],[-90.24053,38.6135],[-90.24551,38.61396],[-90.24539,38.61477]]]}},{"type":"Feature","properties":{"GEOID":"29510127500","pop":2024,"pct_black":64.38,"pct_vacant":13.49,"medinck":27.04,"n_seg":100,"ample_slig":93.0,"well_maint":76.0,"paved":93.0,"c_paved":84.0,"no_mtrip":13.0,"ped_crossi":8.0,"curb_ramp":17.0,"h_tcanopy":42.86},"geometry":{"type":"Polygon","coordinates":[[[-90.21853,38.63329],[-90.2166,38.63888],[-90.21581,38.63846],[-90.21578,38.63885],[-90.2143,38.63887],[-90.21407,38.63899],[-90.21408,38.63956],[-90.21583,38.63958],[-90.2159,38.64572],[-90.2018,38.64275],[-90.20265,38.6403],[-90.20203,38.64017],[-90.20244,38.63894],[-90.20285,38.63903],[-90.20455,38.63396],[-90.20468,38.63364],[-90.20497,38.63349],[-90.20634,38.6293],[-90.21484,38.63098],[-90.2173,38.6312],[-90.21675,38.63282],[-90.21836,38.63312],[-90.21853,38.63329]]]}},{"type":"Feature","properties":{"GEOID":"29510127600","pop":2545,"pct_black":7.66,"pct_vacant":17.96,"medinck":82.43,"n_seg":144,"ample_slig":88.89,"well_maint":66.67,"paved":79.17,"c_paved":63.89,"no_mtrip":25.69,"ped_crossi":4.86,"curb_ramp":8.33,"h_tcanopy":60.34},"geometry":{"type":"Polygon","coordinates":[[[-90.21346,38.60031],[-90.2122,38.60211],[-90.20849,38.61021],[-90.20773,38.61107],[-90.20724,38.61087],[-90.2064,38.61176],[-90.20578,38.61247],[-90.20618,38.61269],[-90.2036,38.61549],[-90.20314,38.61507],[-90.19939,38.61409],[-90.19908,38.61466],[-90.19812,38.61426],[-90.19692,38.61443],[-90.19759,38.6128],[-90.1965,38.61218],[-90.19507,38.61371],[-90.19423,38.61328],[-90.19236,38.61288],[-90.19175,38.61257],[-90.18962,38.612],[-90.18891,38.61205],[-90.185,38.61072],[-90.1918,38.59898],[-90.196,38.59448],[-90.20166,38.58943],[-90.20292,38.59217],[-90.20413,38.59347],[-90.206,38.59504],[-90.20561,38.5952],[-90.20479,38.59587],[-90.20471,38.59629],[-90.20483,38.5966],[-90.20512,38.59645],[-90.2074,38.59853],[-90.21346,38.60031]]]}},{"type":"Feature","properties":{"GEOID":"29510106400","pop":2127,"pct_black":96.61,"pct_vacant":36.41,"medinck":36.0,"n_seg":59,"ample_slig":81.36,"well_maint":72.88,"paved":91.53,"c_paved":69.49,"no_mtrip":30.51,"ped_crossi":5.08,"curb_ramp":6.78,"h_tcanopy":60.38},"geometry":{"type":"Polygon","coordinates":[[[-90.27037,38.67249],[-90.26376,38.68165],[-90.25172,38.67628],[-90.25643,38.66968],[-90.26241,38.67234],[-90.26606,38.6738],[-90.26781,38.67136],[-90.27037,38.67249]]]}},{"type":"Feature","properties":{"GEOID":"29510125600","pop":4822,"pct_black":36.81,"pct_vacant":15.67,"medinck":75.52,"n_seg":118,"ample_slig":95.76,"well_maint":86.44,"paved":84.75,"c_paved":88.14,"no_mtrip":16.1,"ped_crossi":16.1,"curb_ramp":22.88,"h_tcanopy":44.66},"geometry":{"type":"Polygon","coordinates":[[[-90.20004,38.62302],[-90.19919,38.625],[-90.19921,38.62525],[-90.19506,38.6363],[-90.18657,38.63452],[-90.1862,38.63428],[-90.18569,38.63429],[-90.18569,38.63412],[-90.18466,38.63417],[-90.17801,38.63373],[-90.17881,38.62916],[-90.18241,38.61802],[-90.18784,38.61938],[-90.19165,38.62091],[-90.1933,38.62145],[-90.20004,38.62302]]]}},{"type":"Feature","properties":{"GEOID":"29510125700","pop":1770,"pct_black":93.9,"pct_vacant":25.69,"medinck":23.88,"n_seg":70,"ample_slig":92.86,"well_maint":62.86,"paved":87.14,"c_paved":84.29,"no_mtrip":12.86,"ped_crossi":7.14,"curb_ramp":22.86,"h_tcanopy":42.11},"geometry":{"type":"Polygon","coordinates":[[[-90.20352,38.63704],[-90.20285,38.63903],[-90.20244,38.63894],[-90.20203,38.64017],[-90.20265,38.6403],[-90.2018,38.64275],[-90.18637,38.63953],[-90.1832,38.63976],[-90.18324,38.64048],[-90.17777,38.64091],[-90.17801,38.63373],[-90.18466,38.63417],[-90.18569,38.63412],[-90.18569,38.63429],[-90.1862,38.63428],[-90.18657,38.63452],[-90.19506,38.6363],[-90.19578,38.63428],[-90.20389,38.63598],[-90.20352,38.63704]]]}},{"type":"Feature","properties":{"GEOID":"29510123300","pop":3089,"pct_black":29.43,"pct_vacant":11.05,"medinck":59.03,"n_seg":51,"ample_slig":90.2,"well_maint":92.16,"paved":94.12,"c_paved":76.47,"no_mtrip":15.69,"ped_crossi":0.0,"curb_ramp":5.88,"h_tcanopy":40.91},"geometry":{"type":"Polygon","coordinates":[[[-90.22303,38.60491],[-90.22174,38.61109],[-90.21236,38.60848],[-90.21175,38.60861],[-90.2119,38.60836],[-90.20965,38.60772],[-90.2122,38.60211],[-90.2135,38.60027],[-90.2234,38.60309],[-90.22303,38.60491]]]}},{"type":"Feature","properties":{"GEOID":"29510124100","pop":4270,"pct_black":48.81,"pct_vacant":34.49,"medinck":40.42,"n_seg":61,"ample_slig":93.44,"well_maint":93.44,"paved":96.72,"c_paved":95.08,"no_mtrip":34.43,"ped_crossi":4.92,"curb_ramp":16.39,"h_tcanopy":33.33},"geometry":{"type":"Polygon","coordinates":[[[-90.23899,38.58431],[-90.23833,38.58754],[-90.23606,38.58725],[-90.23458,38.59442],[-90.22545,38.59325],[-90.22768,38.58253],[-90.23906,38.58395],[-90.23899,38.58431]]]}},{"type":"Feature","properties":{"GEOID":"29510124200","pop":3881,"pct_black":52.67,"pct_vacant":15.94,"medinck":44.07,"n_seg":43,"ample_slig":81.4,"well_maint":93.02,"paved":93.02,"c_paved":76.74,"no_mtrip":13.95,"ped_crossi":6.98,"curb_ramp":13.95,"h_tcanopy":38.46},"geometry":{"type":"Polygon","coordinates":[[[-90.23335,38.59473],[-90.23125,38.60473],[-90.22647,38.6034],[-90.22567,38.60375],[-90.2234,38.60309],[-90.22545,38.59325],[-90.23345,38.59429],[-90.23335,38.59473]]]}},{"type":"Feature","properties":{"GEOID":"29510124300","pop":2939,"pct_black":16.67,"pct_vacant":19.02,"medinck":93.27,"n_seg":64,"ample_slig":79.69,"well_maint":90.62,"paved":89.06,"c_paved":78.12,"no_mtrip":25.0,"ped_crossi":9.38,"curb_ramp":9.38,"h_tcanopy":48.21},"geometry":{"type":"Polygon","coordinates":[[[-90.22695,38.58613],[-90.2234,38.60309],[-90.21499,38.60073],[-90.21605,38.59626],[-90.21597,38.59508],[-90.21545,38.59384],[-90.21599,38.59391],[-90.21633,38.59213],[-90.21571,38.59205],[-90.21493,38.59134],[-90.21657,38.5905],[-90.21819,38.58988],[-90.22137,38.58931],[-90.22247,38.58897],[-90.22572,38.58703],[-90.22703,38.58567],[-90.22695,38.58613]]]}}]}